QIANFAN-41              
1 62242U 24232F   25363.57471518  .00000089  00000+0  11896-3 0  9990
2 62242  89.0009  39.4981 0015459 137.6173 222.6175 13.50981014101526
QIANFAN-42              
1 62243U 24232G   25363.56135778  .00000404  00000+0  16808-3 0  9994
2 62243  89.0000  35.4349 0016138  37.2269 323.0039 14.24498786103762
QIANFAN-43              
1 62244U 24232H   25363.57056789  .00000088  00000+0  11676-3 0  9996
2 62244  89.0014  39.5646 0016861 142.8742 217.3579 13.50979947 70134
QIANFAN-44              
1 62245U 24232J   25363.55824916  .00000083  00000+0  11051-3 0  9992
2 62245  89.0012  39.3764 0015139 139.6078 220.6201 13.50982228101607
QIANFAN-45              
1 62246U 24232K   25363.59941236  .00000088  00000+0  11781-3 0  9997
2 62246  89.0016  39.5193 0015814 139.4024 220.8309 13.50978186101530
QIANFAN-46              
1 62247U 24232L   25363.47594088  .00000089  00000+0  11855-3 0  9997
2 62247  89.0012  39.6001 0015718 144.7683 215.4511 13.50980039101477
QIANFAN-47              
1 62248U 24232M   25363.55415984  .00000089  00000+0  11856-3 0  9995
2 62248  89.0008  39.5245 0016167 143.9241 216.3004 13.50980320101517
QIANFAN-48              
1 62249U 24232N   25363.59115639  .00000082  00000+0  10737-3 0  9994
2 62249  89.0012  39.5233 0018356 146.9559 213.2744 13.50981979101526
